[{"OBJECT_NAME":"STARLINK-35359","OBJECT_ID":"2025-211U","EPOCH":"2026-03-09T16:12:16.598304","MEAN_MOTION":15.05651823,"ECCENTRICITY":0.00015534,"INCLINATION":97.6025,"RA_OF_ASC_NODE":114.1122,"ARG_OF_PERICENTER":125.7368,"MEAN_ANOMALY":234.4004,"EPHEMERIS_TYPE":0,"CLASSIFICATION_TYPE":"U","NORAD_CAT_ID":65670,"ELEMENT_SET_NO":999,"REV_AT_EPOCH":2704,"BSTAR":0.00026843515,"MEAN_MOTION_DOT":3.815e-5,"MEAN_MOTION_DDOT":0},{"OBJECT_NAME":"CICERO 3","OBJECT_ID":"2017-042AA","EPOCH":"2026-03-09T22:34:09.559488","MEAN_MOTION":15.06999011,"ECCENTRICITY":0.00123402,"INCLINATION":97.4153,"RA_OF_ASC_NODE":238.2133,"ARG_OF_PERICENTER":85.148,"MEAN_ANOMALY":275.1157,"EPHEMERIS_TYPE":0,"CLASSIFICATION_TYPE":"U","NORAD_CAT_ID":42849,"ELEMENT_SET_NO":999,"REV_AT_EPOCH":47226,"BSTAR":0.00039473976,"MEAN_MOTION_DOT":5.861e-5,"MEAN_MOTION_DDOT":0}]
